GLOBALSTAR M063         
1 26081U 00008A   24220.18216601 -.00000087  00000+0 -59658-4 0  9993
2 26081  51.9917 218.5407 0004490  69.9917  10.5471 11.86159331120319
GLOBALSTAR M062         
1 26082U 00008B   24220.55499439 -.00000030  00000+0  49143-3 0  9991
2 26082  51.9856 298.0669 0007486 161.2512 283.1562 12.43441866457605
GLOBALSTAR M060         
1 26083U 00008C   24220.25666678 -.00000113  00000+0 -21664-3 0  9991
2 26083  51.9987 214.5360 0003400 209.6234 268.3402 12.17638043114123
GLOBALSTAR M064         
1 26084U 00008D   24220.53485935 -.00000056  00000+0  39373-3 0  9999
2 26084  52.0053 320.1403 0001905 158.7401 201.3511 11.88520752129803
GLOBALSTAR M065         
1 31571U 07020A   24220.58054281 -.00000076  00000+0  15363-3 0  9993
2 31571  51.9892 100.7619 0010088 336.5645  49.5613 12.61975282793815
GLOBALSTAR M069         
1 31573U 07020C   24220.56108507 -.00000064  00000+0  21962-3 0  9993
2 31573  51.9957  56.5816 0001057  80.4981 297.6990 12.62245269794945
GLOBALSTAR M072         
1 31574U 07020D   24220.18786652 -.00000072  00000+0  17852-3 0  9997
2 31574  52.0073 153.7040 0000763   9.5081 129.7663 12.62261181793168
GLOBALSTAR M071         
1 31576U 07020F   24220.50712924 -.00000071  00000+0  18063-3 0  9990
2 31576  52.0071  61.9531 0001344  97.9310 273.9875 12.62271803456126
